OBJECT_NAME,OBJECT_ID,EPOCH,MEAN_MOTION,ECCENTRICITY,INCLINATION,RA_OF_ASC_NODE,ARG_OF_PERICENTER,MEAN_ANOMALY,EPHEMERIS_TYPE,CLASSIFICATION_TYPE,NORAD_CAT_ID,ELEMENT_SET_NO,REV_AT_EPOCH,BSTAR,MEAN_MOTION_DOT,MEAN_MOTION_DDOT
SAUDISAT 1C (SO-50),2002-058C,2026-06-18T08:51:28.341792,14.83049237,.00751936,64.5511,125.3282,262.2562,97.0002,0,U,27607,999,26463,.11045866E-3,.788E-5,0
SAUDISAT 2,2004-025F,2026-06-18T11:18:51.730848,14.56684550,.00235494,98.5507,169.4865,294.1244,65.7491,0,U,28371,999,16593,.51780167E-4,.182E-5,0
SAUDISAT 3,2007-012B,2026-06-18T14:50:58.437024,14.71426291,.0013722,98.1456,120.0203,218.9952,141.0267,0,U,31118,999,2795,.39331009E-4,.193E-5,0
PISAT,2016-059B,2026-06-17T23:04:24.956544,14.68984509,.00284433,97.8178,169.3809,200.2325,159.7756,0,U,41784,999,51985,.11935816E-3,.656E-5,0
FLYING LAPTOP,2017-042G,2026-06-18T14:02:52.780704,15.01153248,.00196076,97.4693,325.0638,117.0555,243.2674,0,U,42831,999,48666,.21898365E-3,.276E-4,0
SALSAT,2020-068K,2026-06-18T10:53:20.067072,15.29814902,.00079869,97.8850,172.5955,302.8690,57.1780,0,U,46495,999,31555,.21400854E-3,.61E-4,0
